STARLINK-1496
1 45780U 20038BC  26092.91668981  .00133544  00000+0  21264-2 0  9990
2 45780  53.0495  61.5356 0000769   8.2416 180.1276 15.52341306  5843
